ACS3                    
1 59588U 24077B   24280.19234058  .00006147  00000+0  69524-2 0  9998
2 59588  97.4396 322.6803 0051374 184.7134 175.3541 13.70097128 22588
